start=new Date('2022-10-06T00:00:00.000Z').valueOf();
sats=[{"TLE_LINE2":"2 53017  53.2174 299.0581 0001725  42.7634 199.0063 15.10759799  1300","FILE":"3593077","MEAN_MOTION_DOT":"-0.01075861","OBJECT_TYPE":"PAYLOAD","TIME_SYSTEM":"UTC","SITE":"AFETR","MEAN_ELEMENT_THEORY":"SGP4","INCLINATION":"53.2174","MEAN_MOTION":"15.10759799","MEAN_MOTION_DDOT":"0.0000000000000","SEMIMAJOR_AXIS":"6912.019","CLASSIFICATION_TYPE":"U","MEAN_ANOMALY":"199.0063","EPOCH":"2022-10-05T22:00:00.999936","ECCENTRICITY":"0.00017250","ELEMENT_SET_NO":"999","PERIOD":"95.316","OBJECT_ID":"2022-076AH","COUNTRY_CODE":"US","RCS_SIZE":"LARGE","DECAY_DATE":null,"PERIAPSIS":"532.691","OBJECT_NAME":"STARLINK-4281","RA_OF_ASC_NODE":"299.0581","EPHEMERIS_TYPE":"0","ARG_OF_PERICENTER":"42.7634","GP_ID":"214278162","TLE_LINE1":"1 53017U 22076AH  22278.91667824 -.01075861  00000-0 -69275-1 0  9997","LAUNCH_DATE":"2022-07-07","REF_FRAME":"TEME","REV_AT_EPOCH":"130","BSTAR":"-0.06927500000000","APOAPSIS":"535.076","NORAD_CAT_ID":"53017","CENTER_NAME":"EARTH"},{"MEAN_MOTION":"15.09719310","INCLINATION":"53.2174","MEAN_ELEMENT_THEORY":"SGP4","MEAN_MOTION_DDOT":"0.0000000000000","MEAN_MOTION_DOT":"-0.00850778","OBJECT_TYPE":"PAYLOAD","TIME_SYSTEM":"UTC","FILE":"3593077","TLE_LINE2":"2 53018  53.2174 299.0538 0001881  34.1139 144.6436 15.09719310  1304","SITE":"AFETR","ELEMENT_SET_NO":"999","PERIOD":"95.382","OBJECT_ID":"2022-076AJ","SEMIMAJOR_AXIS":"6915.194","EPOCH":"2022-10-05T22:00:00.999936","ECCENTRICITY":"0.00018810","CLASSIFICATION_TYPE":"U","MEAN_ANOMALY":"144.6436","RA_OF_ASC_NODE":"299.0538","EPHEMERIS_TYPE":"0","ARG_OF_PERICENTER":"34.1139","RCS_SIZE":"LARGE","DECAY_DATE":null,"COUNTRY_CODE":"US","OBJECT_NAME":"STARLINK-4279","PERIAPSIS":"535.758","APOAPSIS":"538.360","CENTER_NAME":"EARTH","NORAD_CAT_ID":"53018","TLE_LINE1":"1 53018U 22076AJ  22278.91667824 -.00850778  00000-0 -56076-1 0  9990","GP_ID":"214278483","LAUNCH_DATE":"2022-07-07","REF_FRAME":"TEME","REV_AT_EPOCH":"130","BSTAR":"-0.05607600000000"},{"APOAPSIS":"533.254","CENTER_NAME":"EARTH","NORAD_CAT_ID":"53019","TLE_LINE1":"1 53019U 22076AK  22278.91667824 -.01101607  00000-0 -69871-1 0  9999","GP_ID":"214278000","LAUNCH_DATE":"2022-07-07","REF_FRAME":"TEME","BSTAR":"-0.06987100000000","REV_AT_EPOCH":"130","RA_OF_ASC_NODE":"299.0595","ARG_OF_PERICENTER":"34.4828","EPHEMERIS_TYPE":"0","RCS_SIZE":"LARGE","DECAY_DATE":null,"COUNTRY_CODE":"US","OBJECT_NAME":"STARLINK-4282","PERIAPSIS":"530.802","ELEMENT_SET_NO":"999","PERIOD":"95.278","OBJECT_ID":"2022-076AK","SEMIMAJOR_AXIS":"6910.163","EPOCH":"2022-10-05T22:00:00.999936","ECCENTRICITY":"0.00017740","CLASSIFICATION_TYPE":"U","MEAN_ANOMALY":"245.2147","MEAN_MOTION":"15.11368340","INCLINATION":"53.2173","MEAN_ELEMENT_THEORY":"SGP4","MEAN_MOTION_DDOT":"0.0000000000000","OBJECT_TYPE":"PAYLOAD","MEAN_MOTION_DOT":"-0.01101607","TIME_SYSTEM":"UTC","FILE":"3593077","TLE_LINE2":"2 53019  53.2173 299.0595 0001774  34.4828 245.2147 15.11368340  1309","SITE":"AFETR"},{"APOAPSIS":"536.788","CENTER_NAME":"EARTH","NORAD_CAT_ID":"53020","TLE_LINE1":"1 53020U 22076AL  22278.91667824 -.01079710  00000-0 -70693-1 0  9994","GP_ID":"214277909","REV_AT_EPOCH":"130","BSTAR":"-0.07069300000000","REF_FRAME":"TEME","LAUNCH_DATE":"2022-07-07","ARG_OF_PERICENTER":"61.5965","EPHEMERIS_TYPE":"0","RA_OF_ASC_NODE":"299.0553","RCS_SIZE":"LARGE","DECAY_DATE":null,"COUNTRY_CODE":"US","OBJECT_NAME":"STARLINK-4287","PERIAPSIS":"534.579","PERIOD":"95.354","ELEMENT_SET_NO":"999","OBJECT_ID":"2022-076AL","SEMIMAJOR_AXIS":"6913.819","ECCENTRICITY":"0.00015980","EPOCH":"2022-10-05T22:00:00.999936","MEAN_ANOMALY":"141.6876","CLASSIFICATION_TYPE":"U","MEAN_MOTION":"15.10169825","INCLINATION":"53.2174","MEAN_ELEMENT_THEORY":"SGP4","MEAN_MOTION_DDOT":"0.0000000000000","TIME_SYSTEM":"UTC","MEAN_MOTION_DOT":"-0.01079710","OBJECT_TYPE":"PAYLOAD","TLE_LINE2":"2 53020  53.2174 299.0553 0001598  61.5965 141.6876 15.10169825  1307","FILE":"3593077","SITE":"AFETR"},{"OBJECT_NAME":"STARLINK-4203","PERIAPSIS":"529.289","DECAY_DATE":null,"RCS_SIZE":"LARGE","COUNTRY_CODE":"US","EPHEMERIS_TYPE":"0","ARG_OF_PERICENTER":"51.1369","RA_OF_ASC_NODE":"299.0623","BSTAR":"-0.06666300000000","REV_AT_EPOCH":"130","REF_FRAME":"TEME","LAUNCH_DATE":"2022-07-07","TLE_LINE1":"1 53021U 22076AM  22278.91667824 -.01070265  00000-0 -66663-1 0  9993","GP_ID":"214277746","CENTER_NAME":"EARTH","NORAD_CAT_ID":"53021","APOAPSIS":"531.302","SITE":"AFETR","TIME_SYSTEM":"UTC","MEAN_MOTION_DOT":"-0.01070265","OBJECT_TYPE":"PAYLOAD","FILE":"3593077","TLE_LINE2":"2 53021  53.2174 299.0623 0001457  51.1369 265.9551 15.11936969  1305","MEAN_MOTION_DDOT":"0.0000000000000","INCLINATION":"53.2174","MEAN_MOTION":"15.11936969","MEAN_ELEMENT_THEORY":"SGP4","ECCENTRICITY":"0.00014570","EPOCH":"2022-10-05T22:00:00.999936","MEAN_ANOMALY":"265.9551","CLASSIFICATION_TYPE":"U","SEMIMAJOR_AXIS":"6908.430","OBJECT_ID":"2022-076AM","PERIOD":"95.242","ELEMENT_SET_NO":"999"},{"APOAPSIS":"534.117","CENTER_NAME":"EARTH","NORAD_CAT_ID":"53022","TLE_LINE1":"1 53022U 22076AN  22278.91667824 -.01071554  00000-0 -68418-1 0  9996","GP_ID":"214278725","LAUNCH_DATE":"2022-07-07","REF_FRAME":"TEME","BSTAR":"-0.06841800000000","REV_AT_EPOCH":"130","RA_OF_ASC_NODE":"299.0591","ARG_OF_PERICENTER":"48.6316","EPHEMERIS_TYPE":"0","DECAY_DATE":null,"RCS_SIZE":"LARGE","COUNTRY_CODE":"US","OBJECT_NAME":"STARLINK-4216","PERIAPSIS":"531.867","PERIOD":"95.298","ELEMENT_SET_NO":"999","OBJECT_ID":"2022-076AN","SEMIMAJOR_AXIS":"6911.127","EPOCH":"2022-10-05T22:00:00.999936","ECCENTRICITY":"0.00016280","CLASSIFICATION_TYPE":"U","MEAN_ANOMALY":"212.1763","MEAN_MOTION":"15.11052075","INCLINATION":"53.2174","MEAN_ELEMENT_THEORY":"SGP4","MEAN_MOTION_DDOT":"0.0000000000000","OBJECT_TYPE":"PAYLOAD","MEAN_MOTION_DOT":"-0.01071554","TIME_SYSTEM":"UTC","FILE":"3593077","TLE_LINE2":"2 53022  53.2174 299.0591 0001628  48.6316 212.1763 15.11052075  1309","SITE":"AFETR"},{"SITE":"AFETR","TIME_SYSTEM":"UTC","MEAN_MOTION_DOT":"-0.01070406","OBJECT_TYPE":"PAYLOAD","TLE_LINE2":"2 53023  53.2174 299.0637 0001677  37.7707 311.4175 15.12447281  1306","FILE":"3593077","MEAN_MOTION_DDOT":"0.0000000000000","INCLINATION":"53.2174","MEAN_MOTION":"15.12447281","MEAN_ELEMENT_THEORY":"SGP4","ECCENTRICITY":"0.00016770","EPOCH":"2022-10-05T22:00:00.999936","MEAN_ANOMALY":"311.4175","CLASSIFICATION_TYPE":"U","SEMIMAJOR_AXIS":"6906.876","OBJECT_ID":"2022-076AP","ELEMENT_SET_NO":"999","PERIOD":"95.210","OBJECT_NAME":"STARLINK-4284","PERIAPSIS":"527.583","DECAY_DATE":null,"RCS_SIZE":"LARGE","COUNTRY_CODE":"US","ARG_OF_PERICENTER":"37.7707","EPHEMERIS_TYPE":"0","RA_OF_ASC_NODE":"299.0637","REV_AT_EPOCH":"130","BSTAR":"-0.06572300000000","LAUNCH_DATE":"2022-07-07","REF_FRAME":"TEME","GP_ID":"214277584","TLE_LINE1":"1 53023U 22076AP  22278.91667824 -.01070406  00000-0 -65723-1 0  9998","CENTER_NAME":"EARTH","NORAD_CAT_ID":"53023","APOAPSIS":"529.900"},{"CLASSIFICATION_TYPE":"U","MEAN_ANOMALY":"300.4590","EPOCH":"2022-10-05T22:00:00.999936","ECCENTRICITY":"0.00017900","SEMIMAJOR_AXIS":"6907.529","OBJECT_ID":"2022-076AQ","PERIOD":"95.223","ELEMENT_SET_NO":"999","SITE":"AFETR","TLE_LINE2":"2 53024  53.2172 299.0627 0001790  35.1184 300.4590 15.12232976  1303","FILE":"3593077","MEAN_MOTION_DOT":"-0.01070839","OBJECT_TYPE":"PAYLOAD","TIME_SYSTEM":"UTC","MEAN_MOTION_DDOT":"0.0000000000000","MEAN_ELEMENT_THEORY":"SGP4","INCLINATION":"53.2172","MEAN_MOTION":"15.12232976","LAUNCH_DATE":"2022-07-07","REF_FRAME":"TEME","REV_AT_EPOCH":"130","BSTAR":"-0.06614700000000","TLE_LINE1":"1 53024U 22076AQ  22278.91667824 -.01070839  00000-0 -66147-1 0  9990","GP_ID":"214278325","NORAD_CAT_ID":"53024","CENTER_NAME":"EARTH","APOAPSIS":"530.630","PERIAPSIS":"528.157","OBJECT_NAME":"STARLINK-4289","COUNTRY_CODE":"US","DECAY_DATE":null,"RCS_SIZE":"LARGE","RA_OF_ASC_NODE":"299.0627","ARG_OF_PERICENTER":"35.1184","EPHEMERIS_TYPE":"0"},{"DECAY_DATE":null,"RCS_SIZE":"LARGE","COUNTRY_CODE":"US","OBJECT_NAME":"STARLINK-4218","PERIAPSIS":"526.527","ARG_OF_PERICENTER":"40.1956","EPHEMERIS_TYPE":"0","RA_OF_ASC_NODE":"299.0644","GP_ID":"214278163","TLE_LINE1":"1 53025U 22076AR  22278.91667824 -.01070733  00000-0 -65079-1 0  9997","BSTAR":"-0.06507900000000","REV_AT_EPOCH":"130","REF_FRAME":"TEME","LAUNCH_DATE":"2022-07-07","APOAPSIS":"528.749","CENTER_NAME":"EARTH","NORAD_CAT_ID":"53025","TIME_SYSTEM":"UTC","OBJECT_TYPE":"PAYLOAD","MEAN_MOTION_DOT":"-0.01070733","TLE_LINE2":"2 53025  53.2174 299.0644 0001609  40.1956 332.0227 15.12809810  1302","FILE":"3593077","SITE":"AFETR","INCLINATION":"53.2174","MEAN_MOTION":"15.12809810","MEAN_ELEMENT_THEORY":"SGP4","MEAN_MOTION_DDOT":"0.0000000000000","SEMIMAJOR_AXIS":"6905.773","ECCENTRICITY":"0.00016090","EPOCH":"2022-10-05T22:00:00.999936","MEAN_ANOMALY":"332.0227","CLASSIFICATION_TYPE":"U","PERIOD":"95.187","ELEMENT_SET_NO":"999","OBJECT_ID":"2022-076AR"},{"NORAD_CAT_ID":"53026","CENTER_NAME":"EARTH","APOAPSIS":"532.354","BSTAR":"-0.06724100000000","REV_AT_EPOCH":"130","REF_FRAME":"TEME","LAUNCH_DATE":"2022-07-07","GP_ID":"214278484","TLE_LINE1":"1 53026U 22076AS  22278.91667824 -.01070679  00000-0 -67241-1 0  9990","EPHEMERIS_TYPE":"0","ARG_OF_PERICENTER":"41.4877","RA_OF_ASC_NODE":"299.0613","PERIAPSIS":"530.034","OBJECT_NAME":"STARLINK-4119","COUNTRY_CODE":"US","RCS_SIZE":"LARGE","DECAY_DATE":null,"OBJECT_ID":"2022-076AS","ELEMENT_SET_NO":"999","PERIOD":"95.261","MEAN_ANOMALY":"256.9806","CLASSIFICATION_TYPE":"U","ECCENTRICITY":"0.00016790","EPOCH":"2022-10-05T22:00:00.999936","SEMIMAJOR_AXIS":"6909.329","MEAN_MOTION_DDOT":"0.0000000000000","MEAN_ELEMENT_THEORY":"SGP4","INCLINATION":"53.2174","MEAN_MOTION":"15.11642002","SITE":"AFETR","TLE_LINE2":"2 53026  53.2174 299.0613 0001679  41.4877 256.9806 15.11642002  1306","FILE":"3593077","TIME_SYSTEM":"UTC","MEAN_MOTION_DOT":"-0.01070679","OBJECT_TYPE":"PAYLOAD"}];
